start=new Date('2022-09-06T00:00:00.000Z').valueOf();
sats=[{"REV_AT_EPOCH":"8786","NORAD_CAT_ID":"47572","PERIOD":"95.592","MEAN_ANOMALY":"275.3201","EPHEMERIS_TYPE":"0","OBJECT_ID":"2021-009AA","REF_FRAME":"TEME","SEMIMAJOR_AXIS":"6925.322","OBJECT_NAME":"STARLINK-1971","LAUNCH_DATE":"2021-02-04","TIME_SYSTEM":"UTC","GP_ID":"211833007","CENTER_NAME":"EARTH","DECAY_DATE":null,"RA_OF_ASC_NODE":"2.1783","TLE_LINE1":"1 47572U 21009AA  22248.70786421  .00002404  00000-0  18017-3 0  9990","ARG_OF_PERICENTER":"84.7940","SITE":"AFETR","PERIAPSIS":"546.266","FILE":"3559723","ELEMENT_SET_NO":"999","EPOCH":"2022-09-05T16:59:19.467744","MEAN_MOTION_DDOT":"0.0000000000000","MEAN_MOTION_DOT":"0.00002404","APOAPSIS":"548.109","MEAN_MOTION":"15.06408515","ECCENTRICITY":"0.00013300","MEAN_ELEMENT_THEORY":"SGP4","RCS_SIZE":"LARGE","CLASSIFICATION_TYPE":"U","COUNTRY_CODE":"US","INCLINATION":"53.0557","OBJECT_TYPE":"PAYLOAD","TLE_LINE2":"2 47572  53.0557   2.1783 0001330  84.7940 275.3201 15.06408515 87866","BSTAR":"0.00018017000000"},{"SITE":"AFETR","ELEMENT_SET_NO":"999","EPOCH":"2022-09-05T14:51:56.140992","FILE":"3559723","PERIAPSIS":"546.245","ARG_OF_PERICENTER":"84.2981","OBJECT_TYPE":"PAYLOAD","INCLINATION":"53.0540","TLE_LINE2":"2 47573  53.0540   2.5704 0001318  84.2981 275.8158 15.06418088 87842","BSTAR":"0.00018673000000","APOAPSIS":"548.071","MEAN_MOTION":"15.06418088","ECCENTRICITY":"0.00013180","MEAN_MOTION_DOT":"0.00002502","MEAN_MOTION_DDOT":"0.0000000000000","COUNTRY_CODE":"US","CLASSIFICATION_TYPE":"U","RCS_SIZE":"LARGE","MEAN_ELEMENT_THEORY":"SGP4","NORAD_CAT_ID":"47573","MEAN_ANOMALY":"275.8158","PERIOD":"95.591","REV_AT_EPOCH":"8784","CENTER_NAME":"EARTH","GP_ID":"211833259","LAUNCH_DATE":"2021-02-04","TIME_SYSTEM":"UTC","TLE_LINE1":"1 47573U 21009AB  22248.61939978  .00002502  00000-0  18673-3 0  9995","RA_OF_ASC_NODE":"2.5704","DECAY_DATE":null,"SEMIMAJOR_AXIS":"6925.293","REF_FRAME":"TEME","OBJECT_ID":"2021-009AB","EPHEMERIS_TYPE":"0","OBJECT_NAME":"STARLINK-1975"},{"COUNTRY_CODE":"US","CLASSIFICATION_TYPE":"U","RCS_SIZE":"LARGE","MEAN_ELEMENT_THEORY":"SGP4","ECCENTRICITY":"0.00013750","APOAPSIS":"548.178","MEAN_MOTION":"15.06396078","MEAN_MOTION_DOT":"-0.00001264","MEAN_MOTION_DDOT":"0.0000000000000","TLE_LINE2":"2 47574  53.0561  32.4978 0001375  78.7800 281.3343 15.06396078 87428","BSTAR":"-0.00006595100000","OBJECT_TYPE":"PAYLOAD","INCLINATION":"53.0561","ARG_OF_PERICENTER":"78.7800","ELEMENT_SET_NO":"999","EPOCH":"2022-09-05T15:14:31.347456","FILE":"3559723","PERIAPSIS":"546.273","SITE":"AFETR","OBJECT_NAME":"STARLINK-1976","SEMIMAJOR_AXIS":"6925.361","REF_FRAME":"TEME","OBJECT_ID":"2021-009AC","EPHEMERIS_TYPE":"0","TLE_LINE1":"1 47574U 21009AC  22248.63508504 -.00001264  00000-0 -65951-4 0  9993","RA_OF_ASC_NODE":"32.4978","DECAY_DATE":null,"CENTER_NAME":"EARTH","GP_ID":"211833507","TIME_SYSTEM":"UTC","LAUNCH_DATE":"2021-02-04","REV_AT_EPOCH":"8742","MEAN_ANOMALY":"281.3343","PERIOD":"95.592","NORAD_CAT_ID":"47574"},{"SITE":"AFETR","ELEMENT_SET_NO":"999","EPOCH":"2022-09-05T19:45:12.067776","PERIAPSIS":"546.255","FILE":"3559723","ARG_OF_PERICENTER":"78.3396","INCLINATION":"53.0564","OBJECT_TYPE":"PAYLOAD","BSTAR":"-0.00001340500000","TLE_LINE2":"2 47575  53.0564  31.6580 0001344  78.3396 281.7744 15.06409144 87455","MEAN_MOTION":"15.06409144","APOAPSIS":"548.116","ECCENTRICITY":"0.00013440","MEAN_MOTION_DDOT":"0.0000000000000","MEAN_MOTION_DOT":"-0.00000481","COUNTRY_CODE":"US","MEAN_ELEMENT_THEORY":"SGP4","CLASSIFICATION_TYPE":"U","RCS_SIZE":"LARGE","NORAD_CAT_ID":"47575","MEAN_ANOMALY":"281.7744","PERIOD":"95.592","REV_AT_EPOCH":"8745","GP_ID":"211832757","CENTER_NAME":"EARTH","LAUNCH_DATE":"2021-02-04","TIME_SYSTEM":"UTC","RA_OF_ASC_NODE":"31.6580","TLE_LINE1":"1 47575U 21009AD  22248.82305634 -.00000481  00000-0 -13405-4 0  9991","DECAY_DATE":null,"SEMIMAJOR_AXIS":"6925.321","EPHEMERIS_TYPE":"0","REF_FRAME":"TEME","OBJECT_ID":"2021-009AD","OBJECT_NAME":"STARLINK-1977"},{"SITE":"AFETR","FILE":"3559723","PERIAPSIS":"546.251","EPOCH":"2022-09-05T15:46:21.430272","ELEMENT_SET_NO":"999","ARG_OF_PERICENTER":"91.3889","OBJECT_TYPE":"PAYLOAD","INCLINATION":"53.0555","BSTAR":"0.00002132200000","TLE_LINE2":"2 47576  53.0555 352.4119 0001390  91.3889 268.7259 15.06400086 87992","MEAN_MOTION_DOT":"0.00000036","MEAN_MOTION_DDOT":"0.0000000000000","APOAPSIS":"548.176","ECCENTRICITY":"0.00013900","MEAN_MOTION":"15.06400086","RCS_SIZE":"LARGE","CLASSIFICATION_TYPE":"U","MEAN_ELEMENT_THEORY":"SGP4","COUNTRY_CODE":"US","NORAD_CAT_ID":"47576","PERIOD":"95.592","MEAN_ANOMALY":"268.7259","REV_AT_EPOCH":"8799","LAUNCH_DATE":"2021-02-04","TIME_SYSTEM":"UTC","CENTER_NAME":"EARTH","GP_ID":"211832508","DECAY_DATE":null,"TLE_LINE1":"1 47576U 21009AE  22248.65719248  .00000036  00000-0  21322-4 0  9994","RA_OF_ASC_NODE":"352.4119","OBJECT_ID":"2021-009AE","REF_FRAME":"TEME","EPHEMERIS_TYPE":"0","SEMIMAJOR_AXIS":"6925.348","OBJECT_NAME":"STARLINK-1978"},{"MEAN_MOTION_DDOT":"0.0000000000000","MEAN_MOTION_DOT":"0.00000150","APOAPSIS":"548.246","ECCENTRICITY":"0.00015380","MEAN_MOTION":"15.06410798","MEAN_ELEMENT_THEORY":"SGP4","RCS_SIZE":"LARGE","CLASSIFICATION_TYPE":"U","COUNTRY_CODE":"US","INCLINATION":"53.0570","OBJECT_TYPE":"PAYLOAD","BSTAR":"0.00002894800000","TLE_LINE2":"2 47577  53.0570   7.2191 0001538  85.7330 274.3835 15.06410798 87799","ARG_OF_PERICENTER":"85.7330","SITE":"AFETR","FILE":"3559723","PERIAPSIS":"546.115","EPOCH":"2022-09-05T16:45:23.564160","ELEMENT_SET_NO":"999","EPHEMERIS_TYPE":"0","OBJECT_ID":"2021-009AF","REF_FRAME":"TEME","SEMIMAJOR_AXIS":"6925.315","OBJECT_NAME":"STARLINK-1979","TIME_SYSTEM":"UTC","LAUNCH_DATE":"2021-02-04","GP_ID":"211833759","CENTER_NAME":"EARTH","DECAY_DATE":null,"RA_OF_ASC_NODE":"7.2191","TLE_LINE1":"1 47577U 21009AF  22248.69818940  .00000150  00000-0  28948-4 0  9996","REV_AT_EPOCH":"8779","NORAD_CAT_ID":"47577","PERIOD":"95.591","MEAN_ANOMALY":"274.3835"},{"ARG_OF_PERICENTER":"92.4772","FILE":"3559723","PERIAPSIS":"546.158","ELEMENT_SET_NO":"999","EPOCH":"2022-09-05T18:12:18.535104","SITE":"AFETR","CLASSIFICATION_TYPE":"U","RCS_SIZE":"LARGE","MEAN_ELEMENT_THEORY":"SGP4","COUNTRY_CODE":"US","MEAN_MOTION_DOT":"0.00007779","MEAN_MOTION_DDOT":"0.0000000000000","ECCENTRICITY":"0.00014300","APOAPSIS":"548.138","MEAN_MOTION":"15.06421414","BSTAR":"0.00054022000000","TLE_LINE2":"2 47578  53.0547  11.9537 0001430  92.4772 267.6380 15.06421414 87726","OBJECT_TYPE":"PAYLOAD","INCLINATION":"53.0547","REV_AT_EPOCH":"8772","PERIOD":"95.591","MEAN_ANOMALY":"267.6380","NORAD_CAT_ID":"47578","OBJECT_NAME":"STARLINK-1980","OBJECT_ID":"2021-009AG","REF_FRAME":"TEME","EPHEMERIS_TYPE":"0","SEMIMAJOR_AXIS":"6925.283","DECAY_DATE":null,"TLE_LINE1":"1 47578U 21009AG  22248.75854786  .00007779  00000-0  54022-3 0  9997","RA_OF_ASC_NODE":"11.9537","LAUNCH_DATE":"2021-02-04","TIME_SYSTEM":"UTC","CENTER_NAME":"EARTH","GP_ID":"211834007"},{"REV_AT_EPOCH":"8784","PERIOD":"95.591","MEAN_ANOMALY":"283.7724","NORAD_CAT_ID":"47579","OBJECT_NAME":"STARLINK-1981","OBJECT_ID":"2021-009AH","REF_FRAME":"TEME","EPHEMERIS_TYPE":"0","SEMIMAJOR_AXIS":"6925.313","DECAY_DATE":null,"TLE_LINE1":"1 47579U 21009AH  22248.60834452  .00000624  00000-0  60780-4 0  9991","RA_OF_ASC_NODE":"2.6261","LAUNCH_DATE":"2021-02-04","TIME_SYSTEM":"UTC","CENTER_NAME":"EARTH","GP_ID":"211832258","ARG_OF_PERICENTER":"76.3451","FILE":"3559723","PERIAPSIS":"546.018","ELEMENT_SET_NO":"999","EPOCH":"2022-09-05T14:36:00.966528","SITE":"AFETR","RCS_SIZE":"LARGE","CLASSIFICATION_TYPE":"U","MEAN_ELEMENT_THEORY":"SGP4","COUNTRY_CODE":"US","MEAN_MOTION_DOT":"0.00000624","MEAN_MOTION_DDOT":"0.0000000000000","MEAN_MOTION":"15.06411491","APOAPSIS":"548.338","ECCENTRICITY":"0.00016750","BSTAR":"0.00006078000000","TLE_LINE2":"2 47579  53.0557   2.6261 0001675  76.3451 283.7724 15.06411491 87843","OBJECT_TYPE":"PAYLOAD","INCLINATION":"53.0557"},{"REV_AT_EPOCH":"8772","PERIOD":"95.592","MEAN_ANOMALY":"280.8122","NORAD_CAT_ID":"47580","OBJECT_NAME":"STARLINK-1982","REF_FRAME":"TEME","OBJECT_ID":"2021-009AJ","EPHEMERIS_TYPE":"0","SEMIMAJOR_AXIS":"6925.343","DECAY_DATE":null,"TLE_LINE1":"1 47580U 21009AJ  22248.76223868  .00000381  00000-0  44490-4 0  9993","RA_OF_ASC_NODE":"11.9289","LAUNCH_DATE":"2021-02-04","TIME_SYSTEM":"UTC","CENTER_NAME":"EARTH","GP_ID":"211833008","ARG_OF_PERICENTER":"79.3020","PERIAPSIS":"546.268","FILE":"3559723","ELEMENT_SET_NO":"999","EPOCH":"2022-09-05T18:17:37.421952","SITE":"AFETR","CLASSIFICATION_TYPE":"U","RCS_SIZE":"LARGE","MEAN_ELEMENT_THEORY":"SGP4","COUNTRY_CODE":"US","MEAN_MOTION_DOT":"0.00000381","MEAN_MOTION_DDOT":"0.0000000000000","ECCENTRICITY":"0.00013560","APOAPSIS":"548.147","MEAN_MOTION":"15.06401964","TLE_LINE2":"2 47580  53.0540  11.9289 0001356  79.3020 280.8122 15.06401964 87722","BSTAR":"0.00004449000000","OBJECT_TYPE":"PAYLOAD","INCLINATION":"53.0540"},{"BSTAR":"0.00006906200000","TLE_LINE2":"2 47581  53.0560 352.6159 0001414  96.4957 263.6193 15.06397956 87980","OBJECT_TYPE":"PAYLOAD","INCLINATION":"53.0560","COUNTRY_CODE":"US","RCS_SIZE":"LARGE","CLASSIFICATION_TYPE":"U","MEAN_ELEMENT_THEORY":"SGP4","APOAPSIS":"548.199","ECCENTRICITY":"0.00014140","MEAN_MOTION":"15.06397956","MEAN_MOTION_DOT":"0.00000747","MEAN_MOTION_DDOT":"0.0000000000000","ELEMENT_SET_NO":"999","EPOCH":"2022-09-05T14:37:21.508608","FILE":"3559723","PERIAPSIS":"546.241","SITE":"AFETR","ARG_OF_PERICENTER":"96.4957","TLE_LINE1":"1 47581U 21009AK  22248.60927672  .00000747  00000-0  69062-4 0  9999","RA_OF_ASC_NODE":"352.6159","DECAY_DATE":null,"CENTER_NAME":"EARTH","GP_ID":"211833260","LAUNCH_DATE":"2021-02-04","TIME_SYSTEM":"UTC","OBJECT_NAME":"STARLINK-1984","SEMIMAJOR_AXIS":"6925.355","OBJECT_ID":"2021-009AK","REF_FRAME":"TEME","EPHEMERIS_TYPE":"0","MEAN_ANOMALY":"263.6193","PERIOD":"95.592","NORAD_CAT_ID":"47581","REV_AT_EPOCH":"8798"}];
